{
    "links": {
        "self": "http://www.neowsapp.com/rest/v1/neo/3714555?api_key=iIulBulltgU6a56xZRHN4H3l9WmuAYTsLGpBGhQ2"
    },
    "id": "3714555",
    "neo_reference_id": "3714555",
    "name": "(2015 FS118)",
    "designation": "2015 FS118",
    "nasa_jpl_url": "http://ssd.jpl.nasa.gov/sbdb.cgi?sstr=3714555",
    "absolute_magnitude_h": 20.3,
    "estimated_diameter": {
        "kilometers": {
            "estimated_diameter_min": 0.2315021222,
            "estimated_diameter_max": 0.5176544822
        },
        "meters": {
            "estimated_diameter_min": 231.5021222103,
            "estimated_diameter_max": 517.6544821978
        },
        "miles": {
            "estimated_diameter_min": 0.1438487052,
            "estimated_diameter_max": 0.3216554833
        },
        "feet": {
            "estimated_diameter_min": 759.5214226325,
            "estimated_diameter_max": 1698.3415313737
        }
    },
    "is_potentially_hazardous_asteroid": false,
    "close_approach_data": [
        {
            "close_approach_date": "2011-02-05",
            "close_approach_date_full": "2011-Feb-05 08:54",
            "epoch_date_close_approach": 1296896040000,
            "relative_velocity": {
                "kilometers_per_second": "16.9078898333",
                "kilometers_per_hour": "60868.4033999898",
                "miles_per_hour": "37821.258768177"
            },
            "miss_distance": {
                "astronomical": "0.2621757113",
                "lunar": "101.9863516957",
                "kilometers": "39220927.976214931",
                "miles": "24370754.5575148078"
            },
            "orbiting_body": "Earth"
        },
        {
            "close_approach_date": "2015-02-11",
            "close_approach_date_full": "2015-Feb-11 11:32",
            "epoch_date_close_approach": 1423654320000,
            "relative_velocity": {
                "kilometers_per_second": "20.8543473616",
                "kilometers_per_hour": "75075.650501684",
                "miles_per_hour": "46649.0896131158"
            },
            "miss_distance": {
                "astronomical": "0.3079016779",
                "lunar": "119.7737527031",
                "kilometers": "46061435.183266073",
                "miles": "28621248.6379468874"
            },
            "orbiting_body": "Earth"
        },
        {
            "close_approach_date": "2019-02-18",
            "close_approach_date_full": "2019-Feb-18 08:33",
            "epoch_date_close_approach": 1550478780000,
            "relative_velocity": {
                "kilometers_per_second": "25.2592778695",
                "kilometers_per_hour": "90933.40033029",
                "miles_per_hour": "56502.4786663405"
            },
            "miss_distance": {
                "astronomical": "0.4626217922",
                "lunar": "179.9598771658",
                "kilometers": "69207234.728702614",
                "miles": "43003381.5671155132"
            },
            "orbiting_body": "Earth"
        }
    ],
    "orbital_data": {
        "orbit_id": "7",
        "orbit_determination_date": "2017-04-06 08:34:44",
        "first_observation_date": "2015-03-24",
        "last_observation_date": "2015-04-12",
        "data_arc_in_days": 19,
        "observations_used": 23,
        "orbit_uncertainty": "7",
        "minimum_orbit_intersection": ".254429",
        "jupiter_tisserand_invariant": "3.045",
        "epoch_osculation": "2459000.5",
        "eccentricity": ".5923576027326446",
        "semi_major_axis": "2.534963649671551",
        "inclination": "28.12721990816821",
        "ascending_node_longitude": "153.4405234085955",
        "orbital_period": "1474.198724265987",
        "perihelion_distance": "1.033358659137716",
        "perihelion_argument": "292.8896861385841",
        "aphelion_distance": "4.036568640205386",
        "perihelion_time": "2458497.554488113652",
        "mean_anomaly": "122.8195231068569",
        "mean_motion": ".2442004555249132",
        "equinox": "J2000",
        "orbit_class": {
            "orbit_class_type": "AMO",
            "orbit_class_description": "Near-Earth asteroid orbits similar to that of 1221 Amor",
            "orbit_class_range": "1.017 AU < q (perihelion) < 1.3 AU"
        }
    },
    "is_sentry_object": false
}